NORAD_CAT_ID,OBJECT_NAME,OBJECT_TYPE,EPOCH,MEAN_MOTION,ECCENTRICITY,INCLINATION,RA_OF_ASC_NODE,ARG_OF_PERICENTER,MEAN_ANOMALY,BSTAR,MEAN_MOTION_DOT,MEAN_MOTION_DDOT,TLE_LINE0,TLE_LINE1,TLE_LINE2,SEMIMAJOR_AXIS,PERIOD,APOGEE,PERIGEE,DECAYED
52557.0,STARLINK-3943,PAYLOAD,2023-09-03 19:53:26,15.08828735,0.0001717,53.2156,289.5611,82.1206,277.9981,-5.7556e-05,-1.204e-05,0.0,0 STARLINK-3943,1 52557U 22051AA  23246.82878061 -.00001204  00000-0 -57556-4 0  9992,2 52557  53.2156 289.5611 0001717  82.1206 277.9981 15.08828735 72958,6917.915,95.438,540.968,538.592,0.0
52557.0,STARLINK-3943,PAYLOAD,2023-09-04 11:47:18,15.08832662,0.0001576,53.2156,286.5846,72.1122,288.0042,-0.00010905,-2.023e-05,0.0,0 STARLINK-3943,1 52557U 22051AA  23247.49118312 -.00002023  00000-0 -10905-3 0  9998,2 52557  53.2156 286.5846 0001576  72.1122 288.0042 15.08832662 72982,6917.903,95.438,540.858,538.678,0.0
52557.0,STARLINK-3943,PAYLOAD,2023-09-05 19:35:00,15.08843659,0.000152,53.2167,280.6407,88.433,271.6837,5.8379e-05,6.41e-06,0.0,0 STARLINK-3943,1 52557U 22051AA  23248.81597425  .00000641  00000-0  58379-4 0  9991,2 52557  53.2167 280.6407 0001520  88.4330 271.6837 15.08843659 73251,6917.869,95.437,540.786,538.683,0.0
52557.0,STARLINK-3943,PAYLOAD,2023-09-06 01:56:32,15.08838265,0.0001516,53.2166,279.4511,90.0371,270.0795,0.00017472,2.494e-05,0.0,0 STARLINK-3943,1 52557U 22051AA  23249.08093549  .00002494  00000-0  17472-3 0  9995,2 52557  53.2166 279.4511 0001516  90.0371 270.0795 15.08838265 73221,6917.886,95.438,540.799,538.702,0.0
52557.0,STARLINK-3943,PAYLOAD,2023-09-06 19:25:48,15.08830843,0.0001285,53.2157,276.1793,92.9626,267.1513,3.1079e-05,2.07e-06,0.0,0 STARLINK-3943,1 52557U 22051AA  23249.80958391  .00000207  00000-0  31079-4 0  9990,2 52557  53.2157 276.1793 0001285  92.9626 267.1513 15.08830843 73335,6917.908,95.438,540.662,538.884,0.0
52557.0,STARLINK-3943,PAYLOAD,2023-09-07 00:11:57,15.08832527,0.0001227,53.2156,275.287,93.7422,266.371,2.346e-05,8.5e-07,0.0,0 STARLINK-3943,1 52557U 22051AA  23250.00830368  .00000085  00000-0  23460-4 0  9996,2 52557  53.2156 275.2870 0001227  93.7422 266.3710 15.08832527 73431,6917.903,95.438,540.617,538.919,0.0
52557.0,STARLINK-3943,PAYLOAD,2023-09-07 08:08:52,15.08840671,0.0001344,53.2155,273.8007,87.1564,272.9582,2.1661e-05,5.7e-07,0.0,0 STARLINK-3943,1 52557U 22051AA  23250.33949961  .00000057  00000-0  21661-4 0  9992,2 52557  53.2155 273.8007 0001344  87.1564 272.9582 15.08840671 73484,6917.878,95.438,540.673,538.814,0.0
52557.0,STARLINK-3943,PAYLOAD,2023-09-07 11:19:38,15.08841694,0.0001336,53.2152,273.2052,91.0677,269.0469,2.9705e-05,1.85e-06,0.0,0 STARLINK-3943,1 52557U 22051AA  23250.47197824  .00000185  00000-0  29705-4 0  9999,2 52557  53.2152 273.2052 0001336  91.0677 269.0469 15.08841694 73437,6917.875,95.437,540.664,538.816,0.0
52557.0,STARLINK-3943,PAYLOAD,2023-09-08 12:45:47,15.08863814,0.0001767,53.2155,268.4465,104.6645,255.4543,-0.00016383,-2.896e-05,0.0,0 STARLINK-3943,1 52557U 22051AA  23251.53180489 -.00002896  00000-0 -16383-3 0  9996,2 52557  53.2155 268.4465 0001767 104.6645 255.4543 15.08863814 73595,6917.808,95.436,540.895,538.45,0.0
52557.0,STARLINK-3943,PAYLOAD,2023-09-09 01:28:54,15.08834197,0.0001251,53.2159,266.0667,106.294,253.819,0.00011732,1.579e-05,0.0,0 STARLINK-3943,1 52557U 22051AA  23252.06173931  .00001579  00000-0  11732-3 0  9997,2 52557  53.2159 266.0667 0001251 106.2940 253.8190 15.08834197 73740,6917.898,95.438,540.629,538.898,0.0
52557.0,STARLINK-3943,PAYLOAD,2023-09-09 07:50:26,15.08840053,0.0001394,53.2161,264.879,98.7333,261.3817,8.203e-05,1.018e-05,0.0,0 STARLINK-3943,1 52557U 22051AA  23252.32669670  .00001018  00000-0  82030-4 0  9994,2 52557  53.2161 264.8790 0001394  98.7333 261.3817 15.08840053 73710,6917.88,95.438,540.71,538.781,0.0
52557.0,STARLINK-3943,PAYLOAD,2023-09-10 06:05:50,15.08842653,0.0001333,53.2156,260.7167,96.7634,263.351,5.8654e-06,-1.95e-06,0.0,0 STARLINK-3943,1 52557U 22051AA  23253.25405869 -.00000195  00000-0  58654-5 0  9997,2 52557  53.2156 260.7167 0001333  96.7634 263.3510 15.08842653 73925,6917.872,95.437,540.659,538.815,0.0
52557.0,STARLINK-3943,PAYLOAD,2023-09-10 23:35:06,15.08829178,0.0001409,53.216,257.4467,95.1854,264.9299,6.8119e-06,-1.8e-06,0.0,0 STARLINK-3943,1 52557U 22051AA  23253.98270860 -.00000180  00000-0  68119-5 0  9999,2 52557  53.2160 257.4467 0001409  95.1854 264.9299 15.08829178 74038,6917.913,95.438,540.753,538.804,0.0
52557.0,STARLINK-3943,PAYLOAD,2023-09-11 07:32:01,15.08832301,0.0001445,53.2163,255.9603,96.5125,263.6032,-7.9047e-06,-4.14e-06,0.0,0 STARLINK-3943,1 52557U 22051AA  23254.31390846 -.00000414  00000-0 -79047-5 0  9997,2 52557  53.2163 255.9603 0001445  96.5125 263.6032 15.08832301 74013,6917.904,95.438,540.769,538.769,0.0
52557.0,STARLINK-3943,PAYLOAD,2023-09-11 17:04:20,15.08835877,0.0001439,53.2165,254.1753,94.1795,265.9361,3.5412e-05,2.76e-06,0.0,0 STARLINK-3943,1 52557U 22051AA  23254.71134651  .00000276  00000-0  35412-4 0  9992,2 52557  53.2165 254.1753 0001439  94.1795 265.9361 15.08835877 74147,6917.893,95.438,540.753,538.763,0.0
52557.0,STARLINK-3943,PAYLOAD,2023-09-12 07:22:48,15.08842954,0.0001426,53.2164,251.4986,96.3793,263.7361,8.3832e-05,1.047e-05,0.0,0 STARLINK-3943,1 52557U 22051AA  23255.30750183  .00001047  00000-0  83832-4 0  9998,2 52557  53.2164 251.4986 0001426  96.3793 263.7361 15.08842954 74232,6917.871,95.437,540.723,538.75,0.0
52557.0,STARLINK-3943,PAYLOAD,2023-09-12 16:55:06,15.08844703,0.0001425,53.2162,249.7142,85.8545,274.261,9.3997e-05,1.209e-05,0.0,0 STARLINK-3943,1 52557U 22051AA  23255.70494087  .00001209  00000-0  93997-4 0  9993,2 52557  53.2162 249.7142 0001425  85.8545 274.2610 15.08844703 74228,6917.866,95.437,540.717,538.745,0.0
52557.0,STARLINK-3943,PAYLOAD,2023-09-12 23:16:39,15.08836795,0.0001394,53.2157,248.5238,87.4191,272.6961,0.00014715,2.055e-05,0.0,0 STARLINK-3943,1 52557U 22051AA  23255.96990468  .00002055  00000-0  14715-3 0  9995,2 52557  53.2157 248.5238 0001394  87.4191 272.6961 15.08836795 74330,6917.89,95.438,540.72,538.791,0.0
52557.0,STARLINK-3943,PAYLOAD,2023-09-13 08:48:57,15.08851447,0.0001439,53.2157,246.7394,88.2042,271.9115,0.00023235,3.413e-05,0.0,0 STARLINK-3943,1 52557U 22051AA  23256.36733523  .00003413  00000-0  23235-3 0  9993,2 52557  53.2157 246.7394 0001439  88.2042 271.9115 15.08851447 74397,6917.845,95.437,540.706,538.715,0.0
52557.0,STARLINK-3943,PAYLOAD,2023-09-13 16:45:54,15.08841632,0.0001443,53.2161,245.2528,93.3333,266.7824,0.00012039,1.629e-05,0.0,0 STARLINK-3943,1 52557U 22051AA  23256.69854400  .00001629  00000-0  12039-3 0  9994,2 52557  53.2161 245.2528 0001443  93.3333 266.7824 15.08841632 74440,6917.875,95.437,540.739,538.742,0.0
52557.0,STARLINK-3943,PAYLOAD,2023-09-14 08:39:46,15.08834863,0.000161,53.2145,242.2793,92.6025,267.5151,-4.0893e-05,-9.39e-06,0.0,0 STARLINK-3943,1 52557U 22051AA  23257.36094934 -.00000939  00000-0 -40893-4 0  9992,2 52557  53.2145 242.2793 0001610  92.6025 267.5151 15.08834863 74540,6917.896,95.438,540.875,538.647,0.0
52557.0,STARLINK-3943,PAYLOAD,2023-09-14 16:36:41,15.08835457,0.0001602,53.2146,240.7921,93.8415,266.276,-8.5599e-06,-4.24e-06,0.0,0 STARLINK-3943,1 52557U 22051AA  23257.69215033 -.00000424  00000-0 -85599-5 0  9995,2 52557  53.2146 240.7921 0001602  93.8415 266.2760 15.08835457 74524,6917.894,95.438,540.868,538.651,0.0
52557.0,STARLINK-3943,PAYLOAD,2023-09-15 08:30:32,15.08842832,0.0001532,53.2144,237.817,100.2079,259.9086,0.00011086,1.477e-05,0.0,0 STARLINK-3943,1 52557U 22051AA  23258.35454774  .00001477  00000-0  11086-3 0  9991,2 52557  53.2144 237.8170 0001532 100.2079 259.9086 15.08842832 74699,6917.872,95.437,540.797,538.677,0.0
52557.0,STARLINK-3943,PAYLOAD,2023-09-16 01:59:47,15.0883912,0.0001512,53.2145,234.5456,103.0843,257.0318,0.00021151,3.08e-05,0.0,0 STARLINK-3943,1 52557U 22051AA  23259.08319084  .00003080  00000-0  21151-3 0  9992,2 52557  53.2145 234.5456 0001512 103.0843 257.0318 15.08839120 74805,6917.883,95.438,540.794,538.702,0.0
52557.0,STARLINK-3943,PAYLOAD,2023-09-16 08:21:20,15.08844497,0.0001446,53.2147,233.3568,100.0559,260.0597,0.00023561,3.464e-05,0.0,0 STARLINK-3943,1 52557U 22051AA  23259.34814870  .00003464  00000-0  23561-3 0  9997,2 52557  53.2147 233.3568 0001446 100.0559 260.0597 15.08844497 74777,6917.867,95.437,540.732,538.731,0.0
52557.0,STARLINK-3943,PAYLOAD,2023-09-17 06:36:44,15.08843034,0.000144,53.2168,229.1933,101.3631,258.7523,0.00010915,1.45e-05,0.0,0 STARLINK-3943,1 52557U 22051AA  23260.27551017  .00001450  00000-0  10915-3 0  9994,2 52557  53.2168 229.1933 0001440 101.3631 258.7523 15.08843034 74980,6917.871,95.437,540.732,538.74,0.0
52557.0,STARLINK-3943,PAYLOAD,2023-09-18 08:02:53,15.08849937,0.0001452,53.217,224.4356,97.599,262.5167,0.00012179,1.651e-05,0.0,0 STARLINK-3943,1 52557U 22051AA  23261.33534394  .00001651  00000-0  12179-3 0  9998,2 52557  53.2170 224.4356 0001452  97.5990 262.5167 15.08849937 75141,6917.85,95.437,540.719,538.711,0.0
52557.0,STARLINK-3943,PAYLOAD,2023-09-19 01:32:08,15.08840987,0.0001462,53.2174,221.1644,88.8831,271.2329,7.9082e-05,9.71e-06,0.0,0 STARLINK-3943,1 52557U 22051AA  23262.06399107  .00000971  00000-0  79082-4 0  9991,2 52557  53.2174 221.1644 0001462  88.8831 271.2329 15.08840987 75252,6917.877,95.437,540.754,538.731,0.0
52557.0,STARLINK-3943,PAYLOAD,2023-09-19 06:18:17,15.08850839,0.0001474,53.2167,220.2752,93.536,266.58,0.00018868,2.717e-05,0.0,0 STARLINK-3943,1 52557U 22051AA  23262.26270337  .00002717  00000-0  18868-3 0  9990,2 52557  53.2167 220.2752 0001474  93.5360 266.5800 15.08850839 75288,6917.847,95.437,540.732,538.693,0.0
52557.0,STARLINK-3943,PAYLOAD,2023-09-20 04:33:41,15.08843135,0.0001536,53.2167,216.1091,81.5242,278.5924,3.4227e-05,2.57e-06,0.0,0 STARLINK-3943,1 52557U 22051AA  23263.19006784  .00000257  00000-0  34227-4 0  9991,2 52557  53.2167 216.1091 0001536  81.5242 278.5924 15.08843135 75420,6917.871,95.437,540.798,538.673,0.0
